{
  "norad_id": 47851,
  "name": "SHIYAN-9 (SY-9)",
  "history": [
    {
      "epoch": "2026-03-28T22:19:42.571776",
      "apogee_km": 35852.18292683104,
      "perigee_km": 35721.21052031887,
      "latitude_deg": -12.063477152134395,
      "longitude_deg": 134.41396863991395,
      "semi_major_axis_km": 42164.83372357496,
      "eccentricity": 0.0015531,
      "inclination_deg": 16.7031,
      "raan_deg": 303.4769,
      "arg_perigee_deg": 26.9457,
      "mean_anomaly_deg": 337.8125,
      "mean_motion_rev_day": 1.00271422
    }
  ]
}