SHIYAN-9 (SY-9)         
1 47851U 21019A   26087.93035384 -.00000247  00000+0  00000+0 0  9998
2 47851  16.7031 303.4769 0015531  26.9457 337.8125  1.00271422 23334
